19P/Borrelly,e,29.3077,74.2285,351.9482,3.606771,0.1438885,0.63782589,70.0895,06/04.0/2023,2000,g  4.5,10.0
# From MPEC 2021-F20
21P/Giacobini-Zinner,e,32.0584,195.3450,172.8980,3.494515,0.1508772,0.71124282,260.3516,06/04.0/2023,2000,g 11.4,4.0
# From MPEC 2023-BF4
22P/Kopff,e,4.7426,120.7287,162.9861,3.438852,0.1545553,0.54963350,68.4365,06/04.0/2023,2000,g  3.0,10.4
# From MPC 14747
23P/Brorsen-Metcalf,e,19.2663,311.9097,129.2738,16.94231,0.0141334,0.97221960,0.0000,08/13.1046/1989,2000,g 10.0,6.0
# From MPC110085
24P/Schaumasse,e,11.5030,78.3137,58.4590,4.055381,0.1206859,0.70775425,245.3788,06/04.0/2023,2000,g  6.5,14.0
# From MPEC 2022-Y15
26P/Grigg-Skjellerup,e,22.4331,211.5415,2.1508,3.015460,0.1882234,0.64055604,321.5363,06/04.0/2023,2000,g 12.0,16.0
# From MPC 78188
27P/Crommelin,e,29.3793,250.6782,195.8504,9.180398,0.0354333,0.91913649,153.4743,06/04.0/2023,2000,g 12.0,8.0
# From MPEC 2023-FK0
28P/Neujmin,e,14.3098,346.3475,347.4698,6.981917,0.0534247,0.77352520,43.5024,06/04.0/2023,2000,g  8.5,6.0
# From MPEC 2023-L10
29P/Schwassmann-Wachmann,e,9.3625,312.4004,51.3180,6.049165,0.0662462,0.04458394,99.4310,06/04.0/2023,2000,g  7.8,4.0
# From MPEC 2023-CD7
30P/Reinmuth,e,8.0541,117.4147,9.4462,3.735287,0.1365269,0.51557606,299.9183,06/04.0/2023,2000,g  9.5,6.0
# From MPEC 2021-F20
31P/Schwassmann-Wachmann,e,4.5487,114.1048,17.8692,4.234871,0.1130951,0.19245964,161.9144,06/04.0/2023,2000,g 13.1,4.0
# From MPEC 2023-J29
32P/ComasSola,e,9.9162,54.5399,54.7102,4.559744,0.1012263,0.55635492,327.4681,06/04.0/2023,2000,g  6.5,8.0
# From MPEC 2023-J29
33P/Daniel,e,22.2938,66.2952,20.4474,4.088887,0.1192055,0.45188195,297.2334,06/04.0/2023,2000,g 10.0,12.0
# From  15, 452
35P/Herschel-Rigollet,e,65.173,356.668,29.005,28.5439,0.006463,0.9744384,0.000,02/21.1919/2092,2000,g  9.0,4.0
# From MPEC 2022-ED3
36P/Whipple,e,9.9525,181.8414,201.0754,4.137796,0.1170983,0.26901738,128.4482,06/04.0/2023,2000,g  8.5,6.0
# From MPEC 2021-F20
37P/Forbes,e,8.9500,314.5651,330.0911,3.462140,0.1529985,0.53297682,284.2263,06/04.0/2023,2000,g 13.8,4.0
# From MPEC 2018-S50
38P/Stephan-Oterma,e,18.3967,77.8908,359.5132,11.24097,0.0261516,0.85954608,43.5381,06/04.0/2023,2000,g  3.5,12.0
# From MPEC 2022-A21
39P/Oterma,e,1.5459,296.2206,102.6895,7.236317,0.0506323,0.21129981,358.1825,06/04.0/2023,2000,g  7.0,6.0
# From MPC100283
40P/Vaisala,e,11.4584,133.5222,47.6028,4.956542,0.0893174,0.63162080,280.1604,06/04.0/2023,2000,g  5.5,12.0
# From MPEC 2023-J29
41P/Tuttle-Giacobini-Kresak,e,9.2204,140.9880,62.2162,3.088199,0.1816127,0.65988802,47.8382,06/04.0/2023,2000,g 10.0,16.0
# From MPC 94283
42P/Neujmin,e,3.9906,150.1757,147.2158,4.874505,0.0915816,0.58445111,272.4700,06/04.0/2023,2000,g 13.0,6.0
# From MPEC 2023-J29
43P/Wolf-Harrington,e,9.3470,244.0293,224.2441,4.328164,0.1094583,0.43443795,272.2434,06/04.0/2023,2000,g  8.0,6.0
# From MPEC 2023-J29
44P/Reinmuth,e,5.8971,286.4272,58.0275,3.688216,0.1391488,0.42733111,56.6373,06/04.0/2023,2000,g  8.3,6.0
# From MPEC 2022-O01
45P/Honda-Mrkos-Pajdusakova,e,4.3233,87.6857,327.9292,3.055957,0.1844944,0.81769181,74.3527,06/04.0/2023,2000,g 13.5,8.0
# From MPEC 2023-J29
46P/Wirtanen,e,11.7494,82.1629,356.3269,3.091064,0.1813603,0.65871417,296.4997,06/04.0/2023,2000,g 14.0,6.0
# From MPEC 2023-J29
47P/Ashbrook-Jackson,e,13.0395,356.9161,357.7779,4.121567,0.1177906,0.31868634,256.7648,06/04.0/2023,2000,g  1.0,11.2
# From MPEC 2023-FK0
48P/Johnson,e,12.2003,110.0852,216.7501,3.501087,0.1504526,0.42706273,264.0901,06/04.0/2023,2000,g 10.0,6.0
# From MPEC 2023-J95
49P/Arend-Rigaux,e,19.0543,118.7914,332.9229,3.569304,0.1461601,0.59867298,261.0816,06/04.0/2023,2000,g 11.3,4.4
# From MPEC 2015-S97
50P/Arend,e,19.1013,355.1725,49.3575,4.087417,0.1192698,0.52967071,318.9899,06/04.0/2023,2000,g  9.5,6.0
# From MPEC 2023-J29
51P/Harrington,e,5.4266,83.6614,269.2437,3.706281,0.1381327,0.54336378,33.9460,06/04.0/2023,2000,g 10.0,8.0
# From NK 3014
51P-A/Harrington,e,5.4266,83.6615,269.2149,3.707954,0.1380393,0.54360262,33.5695,06/04.0/2023,2000,g 10.0,8.0
# From MPEC 2023-J29
51P-D/Harrington,e,5.4271,83.6497,269.2620,3.706642,0.1381126,0.54349352,33.8827,06/04.0/2023,2000,g 16.0,8.0
# From MPEC 2023-J29
52P/Harrington-Abell,e,10.2310,336.8213,139.5582,3.863549,0.1297850,0.54036401,78.7500,06/04.0/2023,2000,g 13.5,6.0
# From MPEC 2023-J29
53P/VanBiesbroeck,e,6.6074,148.8272,134.4822,5.433198,0.0778253,0.55030571,201.8145,06/04.0/2023,2000,g  7.7,4.8
# From MPC 89011
54P/de Vico-Swift-NEAT,e,6.0641,358.8088,1.9108,3.787878,0.1336934,0.42645058,298.7984,06/04.0/2023,2000,g  9.0,4.0
# From MPC 31070
55P/Tempel-Tuttle,e,162.5097,235.4215,172.4748,10.35515,0.0295780,0.90525466,273.9558,06/04.0/2023,2000,g  9.0,4.0
# From MPEC 2023-J29
56P/Slaughter-Burnham,e,8.1587,345.9724,44.0666,5.065757,0.0864445,0.50857852,216.6489,06/04.0/2023,2000,g  8.5,6.0
# From MPEC 2023-HD1
57P/duToit-Neujmin-Delporte,e,2.8524,188.7780,115.1284,3.443270,0.1542579,0.50082647,91.7641,06/04.0/2023,2000,g 13.7,4.0
# From MPEC 2023-J29
58P/Jackson-Neujmin,e,13.1070,159.0706,200.5330,4.088373,0.1192280,0.66264271,131.4241,06/04.0/2023,2000,g 15.5,6.0
# From MPEC 2023-A50
59P/Kearns-Kwee,e,9.3455,312.7801,127.5339,4.482719,0.1038465,0.47631671,178.6199,06/04.0/2023,2000,g  7.0,6.0
# From MPEC 2021-F20
60P/Tsuchinshan,e,3.5799,267.4330,216.9837,3.526362,0.1488380,0.53358482,244.2098,06/04.0/2023,2000,g 11.5,6.0
# From MPEC 2023-J29
61P/Shajn-Schaldach,e,5.9995,162.9611,221.6369,3.688640,0.1391249,0.42369704,31.0628,06/04.0/2023,2000,g  6.0,10.0
# From MPEC 2023-J29
62P/Tsuchinshan,e,4.7382,68.7016,47.2704,3.370564,0.1592760,0.62483266,327.4681,06/04.0/2023,2000,g  8.0,10.0
# From MPC 84320
63P/Wild,e,19.7088,357.9995,168.9354,5.617648,0.0740240,0.65006516,276.3461,06/04.0/2023,2000,g 10.5,6.0
# From MPEC 2023-A50
64P/Swift-Gehrels,e,8.9492,299.8864,97.1880,4.452521,0.1049048,0.68871338,175.3089,06/04.0/2023,2000,g  9.5,12.0
# From MPEC 2023-KD6
65P/Gunn,e,9.1757,61.9823,213.8467,3.889610,0.1284828,0.24832138,264.3987,06/04.0/2023,2000,g  5.0,6.0
# From MPEC 2021-F20
66P/duToit,e,18.6388,21.7789,257.4868,6.070586,0.0658959,0.78566059,121.4858,06/04.0/2023,2000,g 15.0,4.0
# From MPEC 2023-J29
67P/Churyumov-Gerasimenko,e,3.8718,36.3291,22.1551,3.457548,0.1533034,0.64992093,88.7344,06/04.0/2023,2000,g 11.0,4.0
# From MPEC 2023-HD1
68P/Klemola,e,11.1106,175.0507,153.2565,4.959891,0.0892269,0.63700360,116.2798,06/04.0/2023,2000,g 12.6,4.0
# From MPEC 2023-A50
69P/Taylor,e,22.0496,104.8046,343.3989,3.883904,0.1287661,0.41403631,198.0566,06/04.0/2023,2000,g  9.5,12.0
# From MPEC 2023-G31
70P/Kojima,e,6.5984,119.2516,1.7900,3.677241,0.1397723,0.45401036,80.7743,06/04.0/2023,2000,g 11.0,6.0
# From MPEC 2023-KD6
71P/Clark,e,9.4381,59.3924,209.0662,3.138355,0.1772764,0.49372663,23.4389,06/04.0/2023,2000,g  9.8,6.0
# From MPEC 2023-L10
72P/Denning-Fujikawa,e,10.9488,26.7010,346.7347,4.307319,0.1102538,0.81867767,358.7018,06/04.0/2023,2000,g 15.0,4.0
# From MPEC 2023-J29
73P/Schwassmann-Wachmann,e,11.2361,69.5739,199.5115,3.093820,0.1811179,0.68576530,51.0975,06/04.0/2023,2000,g 11.5,6.0
# From MPEC 2023-J29
73P-T/Schwassmann-Wachmann,e,11.2399,69.5791,199.4915,3.092561,0.1812285,0.68567792,51.3458,06/04.0/2023,2000,g  9.0,4.0
# From MPEC 2022-P18
73P-U/Schwassmann-Wachmann,e,11.0769,70.6452,199.8882,2.877034,0.2019698,0.66646716,57.1661,06/04.0/2023,2000,g 19.0,4.0
# From MPEC 2022-X67
73P-V/Schwassmann-Wachmann,e,11.2522,69.4515,199.3891,3.147282,0.1765227,0.69068273,49.9426,06/04.0/2023,2000,g 19.0,4.0
# From MPEC 2022-R15
73P-W/Schwassmann-Wachmann,e,11.6150,67.2557,198.7959,4.599553,0.0999150,0.78261503,28.2181,06/04.0/2023,2000,g 18.2,4.0
# From MPEC 2023-A50
73P-X/Schwassmann-Wachmann,e,11.2679,69.4449,199.4071,3.126526,0.1782835,0.68863094,50.3814,06/04.0/2023,2000,g 17.5,4.0
# From MPEC 2022-R15
73P-Y/Schwassmann-Wachmann,e,11.2062,69.7322,199.4832,3.035530,0.1863598,0.68036889,52.8569,06/04.0/2023,2000,g 17.4,4.0
# From MPEC 2022-P18
73P-BU/Schwassmann-Wachmann,e,11.0769,70.6452,199.8882,2.877034,0.2019698,0.66646716,57.1661,06/04.0/2023,2000,g 19.0,4.0
# From MPEC 2022-X67
73P-BV/Schwassmann-Wachmann,e,11.2522,69.4515,199.3891,3.147282,0.1765227,0.69068273,49.9426,06/04.0/2023,2000,g 19.0,4.0
# From MPEC 2022-R15
73P-BW/Schwassmann-Wachmann,e,11.6150,67.2557,198.7959,4.599553,0.0999150,0.78261503,28.2181,06/04.0/2023,2000,g 18.2,4.0
# From MPEC 2023-A50
73P-BX/Schwassmann-Wachmann,e,11.2679,69.4449,199.4071,3.126526,0.1782835,0.68863094,50.3814,06/04.0/2023,2000,g 17.5,4.0
# From MPEC 2022-R15
73P-BY/Schwassmann-Wachmann,e,11.2062,69.7322,199.4832,3.035530,0.1863598,0.68036889,52.8569,06/04.0/2023,2000,g 17.4,4.0
# From MPEC 2023-J95
74P/Smirnova-Chernykh,e,6.4400,53.9587,139.4993,4.701123,0.0966945,0.06768369,184.9001,06/04.0/2023,2000,g  5.0,6.0
# From MPEC 2022-K19
76P/West-Kohoutek-Ikemura,e,30.4874,84.1048,359.9369,3.470212,0.1524649,0.53888955,200.7007,06/04.0/2023,2000,g  8.0,12.0
# From MPEC 2023-L10
77P/Longmore,e,24.3186,14.7678,196.7270,3.623808,0.1428750,0.35185298,8.8430,06/04.0/2023,2000,g 12.2,4.0
# From MPEC 2021-O56
78P/Gehrels,e,6.2574,210.5196,192.6580,3.736604,0.1364547,0.46301046,207.6042,06/04.0/2023,2000,g  5.5,8.0
# From MPC 94675
79P/du Toit-Hartley,e,3.1487,280.5196,281.7885,2.943862,0.1951318,0.61919624,336.9040,06/04.0/2023,2000,g 16.0,4.0
# From MPEC 2023-L10
80P/Peters-Hartley,e,29.9233,259.7955,339.2435,4.023191,0.1221372,0.59848782,21.6371,06/04.0/2023,2000,g 14.0,4.0
# From MPEC 2023-L10
81P/Wild,e,3.2364,136.0975,41.6214,3.454235,0.1535240,0.53726856,26.1594,06/04.0/2023,2000,g 11.6,4.0
# From MPC133426
82P/Gehrels,e,1.1291,239.2449,226.4121,4.132989,0.1173026,0.12214630,212.0056,06/04.0/2023,2000,g 15.0,4.0
# From MPEC 2020-FB5
84P/Giclas,e,7.5502,108.1266,281.6576,3.549993,0.1473543,0.51608628,161.2809,06/04.0/2023,2000,g  9.5,8.0
# From MPEC 2022-YB4
86P/Wild,e,15.4767,72.2875,179.7157,3.607434,0.1438489,0.37248938,69.1556,06/04.0/2023,2000,g 11.0,6.0
# From MPEC 2020-SI8
